STARLINK-36772          
1 67721U 26026A   26068.83334490 -.02088057  00000+0 -47262-1 0  9998
2 67721  97.2843 123.3459 0001272  71.9244 233.5018 15.46605854  5331
STARLINK-36796          
1 67722U 26026B   26068.83334490 -.01929256  00000+0 -44813-1 0  9992
2 67722  97.2845 123.3395 0001624  87.4883 199.4864 15.45579239  5330
STARLINK-36369          
1 67723U 26026C   26068.83334490 -.02009428  00000+0 -41722-1 0  9990
2 67723  97.2846 123.3475 0001773  90.0483 219.1997 15.48937510  5332
STARLINK-36752          
1 67724U 26026D   26068.83334490 -.01980162  00000+0 -44102-1 0  9998
2 67724  97.2839 123.3658 0001596  92.8555 256.6306 15.46883205  5330
STARLINK-36754          
1 67725U 26026E   26068.83334490 -.01939178  00000+0 -41612-1 0  9993
2 67725  97.2846 123.3385 0001906 109.9951 177.2983 15.47879996  5333
STARLINK-36755          
1 67726U 26026F   26068.83334490  .00012762  00000+0  23610-3 0  9992
2 67726  97.2852 123.3149 0001453  83.8094 145.8201 15.49167123  5332
STARLINK-36741          
1 67727U 26026G   26068.83334490 -.01601671  00000+0 -32238-1 0  9993
2 67727  97.2847 123.3296 0001585  82.9186 181.9620 15.49612739  5332
STARLINK-36757          
1 67728U 26026H   26068.83334490 -.02102982  00000+0 -45161-1 0  9995
2 67728  97.2849 123.3828 0001744  76.8218 315.1040 15.48136048  5331
STARLINK-36751          
1 67729U 26026J   26068.83334490 -.02130725  00000+0 -45771-1 0  9999
2 67729  97.2848 123.3951 0001800  66.9495 354.4151 15.48173998  5332
STARLINK-36747          
1 67730U 26026K   26068.83334490 -.02158333  00000+0 -46618-1 0  9997
2 67730  97.2850 123.3896 0001684  59.0855 350.9058 15.48066190  5330
STARLINK-36315          
1 67731U 26026L   26068.83334490 -.01967333  00000+0 -41457-1 0  9991
2 67731  97.2853 123.4035 0001352  86.4710 345.4519 15.48449947  5332
STARLINK-36260          
1 67732U 26026M   26068.83334490 -.01948456  00000+0 -40881-1 0  9997
2 67732  97.2854 123.4107 0001642  71.9532  17.0260 15.48539702  5331
